{
  "type": "FeatureCollection",
  "features": [
    {
      "type": "Feature",
      "properties": {
        "norad_id": 66575,
        "name": "STARLINK-35810",
        "group": "last-30-days",
        "lat": -42.319798575046114,
        "lon": 90.5231299351383,
        "alt_km": 361.224501229668,
        "timestamp": "2025-12-04T17:48:38.964164+00:00",
        "meta_object_name": "STARLINK-35810",
        "meta_object_id": "2025-268U",
        "meta_epoch": "2025-12-04T08:00:01.999872",
        "meta_mean_motion": 15.71621845,
        "meta_eccentricity": 0.00014734,
        "meta_inclination": 42.999,
        "meta_ra_of_asc_node": 170.7302,
        "meta_arg_of_pericenter": 270.9833,
        "meta_mean_anomaly": 213.8089,
        "meta_ephemeris_type": 0,
        "meta_classification_type": "U",
        "meta_norad_cat_id": 66575,
        "meta_element_set_no": 999,
        "meta_rev_at_epoch": 331,
        "meta_bstar": -0.016393989,
        "meta_mean_motion_dot": -0.01927571,
        "meta_mean_motion_ddot": 0,
        "tle_line1": "1 66575U 25268U   25338.33335648 -.01927571  00000+0 -16394-1 0  9995",
        "tle_line2": "2 66575  42.9990 170.7302 0001473 270.9833 213.8089 15.71621845  3319"
      },
      "geometry": {
        "type": "Point",
        "coordinates": [
          90.5231299351383,
          -42.319798575046114
        ]
      }
    },
    {
      "type": "Feature",
      "properties": {
        "norad_id": 66576,
        "name": "STARLINK-35814",
        "group": "last-30-days",
        "lat": -42.01477960066216,
        "lon": 93.06628457456551,
        "alt_km": 361.29563241071537,
        "timestamp": "2025-12-04T17:48:38.964174+00:00",
        "meta_object_name": "STARLINK-35814",
        "meta_object_id": "2025-268V",
        "meta_epoch": "2025-12-04T08:00:01.999872",
        "meta_mean_motion": 15.71622893,
        "meta_eccentricity": 0.00013474,
        "meta_inclination": 42.9992,
        "meta_ra_of_asc_node": 170.7249,
        "meta_arg_of_pericenter": 274.2916,
        "meta_mean_anomaly": 212.4171,
        "meta_ephemeris_type": 0,
        "meta_classification_type": "U",
        "meta_norad_cat_id": 66576,
        "meta_element_set_no": 999,
        "meta_rev_at_epoch": 331,
        "meta_bstar": -0.016406354,
        "meta_mean_motion_dot": -0.01928838,
        "meta_mean_motion_ddot": 0,
        "tle_line1": "1 66576U 25268V   25338.33335648 -.01928838  00000+0 -16406-1 0  9997",
        "tle_line2": "2 66576  42.9992 170.7249 0001347 274.2916 212.4171 15.71622893  3312"
      },
      "geometry": {
        "type": "Point",
        "coordinates": [
          93.06628457456551,
          -42.01477960066216
        ]
      }
    },
    {
      "type": "Feature",
      "properties": {
        "norad_id": 66577,
        "name": "STARLINK-35815",
        "group": "last-30-days",
        "lat": -41.65307300353038,
        "lon": 95.58705061663231,
        "alt_km": 361.34898564826926,
        "timestamp": "2025-12-04T17:48:38.964185+00:00",
        "meta_object_name": "STARLINK-35815",
        "meta_object_id": "2025-268W",
        "meta_epoch": "2025-12-04T08:00:01.999872",
        "meta_mean_motion": 15.71623366,
        "meta_eccentricity": 0.00012718,
        "meta_inclination": 42.999,
        "meta_ra_of_asc_node": 170.7206,
        "meta_arg_of_pericenter": 271.8118,
        "meta_mean_anomaly": 216.8133,
        "meta_ephemeris_type": 0,
        "meta_classification_type": "U",
        "meta_norad_cat_id": 66577,
        "meta_element_set_no": 999,
        "meta_rev_at_epoch": 331,
        "meta_bstar": -0.016404928,
        "meta_mean_motion_dot": -0.01928667,
        "meta_mean_motion_ddot": 0,
        "tle_line1": "1 66577U 25268W   25338.33335648 -.01928667  00000+0 -16405-1 0  9997",
        "tle_line2": "2 66577  42.9990 170.7206 0001271 271.8118 216.8133 15.71623366  3319"
      },
      "geometry": {
        "type": "Point",
        "coordinates": [
          95.58705061663231,
          -41.65307300353038
        ]
      }
    },
    {
      "type": "Feature",
      "properties": {
        "norad_id": 66578,
        "name": "STARLINK-35743",
        "group": "last-30-days",
        "lat": -41.23726451958922,
        "lon": 98.07575007492328,
        "alt_km": 361.3145909520654,
        "timestamp": "2025-12-04T17:48:38.964196+00:00",
        "meta_object_name": "STARLINK-35743",
        "meta_object_id": "2025-268X",
        "meta_epoch": "2025-12-04T08:00:01.999872",
        "meta_mean_motion": 15.71622983,
        "meta_eccentricity": 0.00013086,
        "meta_inclination": 42.9991,
        "meta_ra_of_asc_node": 170.7157,
        "meta_arg_of_pericenter": 271.7511,
        "meta_mean_anomaly": 218.7916,
        "meta_ephemeris_type": 0,
        "meta_classification_type": "U",
        "meta_norad_cat_id": 66578,
        "meta_element_set_no": 999,
        "meta_rev_at_epoch": 331,
        "meta_bstar": -0.016403556,
        "meta_mean_motion_dot": -0.01928524,
        "meta_mean_motion_ddot": 0,
        "tle_line1": "1 66578U 25268X   25338.33335648 -.01928524  00000+0 -16404-1 0  9999",
        "tle_line2": "2 66578  42.9991 170.7157 0001308 271.7511 218.7916 15.71622983  3317"
      },
      "geometry": {
        "type": "Point",
        "coordinates": [
          98.07575007492328,
          -41.23726451958922
        ]
      }
    },
    {
      "type": "Feature",
      "properties": {
        "norad_id": 66579,
        "name": "STARLINK-35868",
        "group": "last-30-days",
        "lat": -40.768270297114604,
        "lon": 100.53092737978038,
        "alt_km": 361.1744346288133,
        "timestamp": "2025-12-04T17:48:38.964205+00:00",
        "meta_object_name": "STARLINK-35868",
        "meta_object_id": "2025-268Y",
        "meta_epoch": "2025-12-04T08:00:01.999872",
        "meta_mean_motion": 15.71622578,
        "meta_eccentricity": 0.00015014,
        "meta_inclination": 42.9991,
        "meta_ra_of_asc_node": 170.7108,
        "meta_arg_of_pericenter": 270.8641,
        "meta_mean_anomaly": 221.5952,
        "meta_ephemeris_type": 0,
        "meta_classification_type": "U",
        "meta_norad_cat_id": 66579,
        "meta_element_set_no": 999,
        "meta_rev_at_epoch": 331,
        "meta_bstar": -0.016398167,
        "meta_mean_motion_dot": -0.01928081,
        "meta_mean_motion_ddot": 0,
        "tle_line1": "1 66579U 25268Y   25338.33335648 -.01928081  00000+0 -16398-1 0  9990",
        "tle_line2": "2 66579  42.9991 170.7108 0001501 270.8641 221.5952 15.71622578  3315"
      },
      "geometry": {
        "type": "Point",
        "coordinates": [
          100.53092737978038,
          -40.768270297114604
        ]
      }
    },
    {
      "type": "Feature",
      "properties": {
        "norad_id": 66580,
        "name": "STARLINK-35872",
        "group": "last-30-days",
        "lat": -40.2474250456868,
        "lon": 102.95147580570462,
        "alt_km": 361.21024559330635,
        "timestamp": "2025-12-04T17:48:38.964215+00:00",
        "meta_object_name": "STARLINK-35872",
        "meta_object_id": "2025-268Z",
        "meta_epoch": "2025-12-04T08:00:01.999872",
        "meta_mean_motion": 15.71612377,
        "meta_eccentricity": 0.00014462,
        "meta_inclination": 42.999,
        "meta_ra_of_asc_node": 170.7064,
        "meta_arg_of_pericenter": 270.3886,
        "meta_mean_anomaly": 223.9969,
        "meta_ephemeris_type": 0,
        "meta_classification_type": "U",
        "meta_norad_cat_id": 66580,
        "meta_element_set_no": 999,
        "meta_rev_at_epoch": 331,
        "meta_bstar": -0.016314686,
        "meta_mean_motion_dot": -0.01918594,
        "meta_mean_motion_ddot": 0,
        "tle_line1": "1 66580U 25268Z   25338.33335648 -.01918594  00000+0 -16315-1 0  9999",
        "tle_line2": "2 66580  42.9990 170.7064 0001446 270.3886 223.9969 15.71612377  3311"
      },
      "geometry": {
        "type": "Point",
        "coordinates": [
          102.95147580570462,
          -40.2474250456868
        ]
      }
    },
    {
      "type": "Feature",
      "properties": {
        "norad_id": 66581,
        "name": "STARLINK-35744",
        "group": "last-30-days",
        "lat": -39.67743241447873,
        "lon": 105.32986471132452,
        "alt_km": 361.1667629106232,
        "timestamp": "2025-12-04T17:48:38.964225+00:00",
        "meta_object_name": "STARLINK-35744",
        "meta_object_id": "2025-268AA",
        "meta_epoch": "2025-12-04T08:00:01.999872",
        "meta_mean_motion": 15.71622169,
        "meta_eccentricity": 0.00014837,
        "meta_inclination": 42.999,
        "meta_ra_of_asc_node": 170.7009,
        "meta_arg_of_pericenter": 270.6477,
        "meta_mean_anomaly": 225.6462,
        "meta_ephemeris_type": 0,
        "meta_classification_type": "U",
        "meta_norad_cat_id": 66581,
        "meta_element_set_no": 999,
        "meta_rev_at_epoch": 326,
        "meta_bstar": -0.0163957,
        "meta_mean_motion_dot": -0.01927781,
        "meta_mean_motion_ddot": 0,
        "tle_line1": "1 66581U 25268AA  25338.33335648 -.01927781  00000+0 -16396-1 0  9997",
        "tle_line2": "2 66581  42.9990 170.7009 0001483 270.6477 225.6462 15.71622169  3262"
      },
      "geometry": {
        "type": "Point",
        "coordinates": [
          105.32986471132452,
          -39.67743241447873
        ]
      }
    }
  ]
}